[
    {
        "Altitude(m)": 702670.7037297038,
        "Argument of Periapsis(deg)": 0.0,
        "Eccentricity": 0.0,
        "Inclination(deg)": 45.0,
        "Latitude(deg)": 11.499166130900106,
        "Longitude(deg)": 76.70465033407181,
        "Mean Anomaly(deg)": 16.363600000000012,
        "RAAN(deg)": 165.0,
        "Satellite Name": "Constellation 1 727",
        "Satellite Number": 727,
        "Semi-Major Axis(m)": 7083131.272910544,
        "Time(s)": 0
    },
    {
        "Altitude(m)": 702670.5736978159,
        "Argument of Periapsis(deg)": 5.994800624540561e-05,
        "Eccentricity": 0.0,
        "Inclination(deg)": 45.0,
        "Latitude(deg)": 11.541481392569258,
        "Longitude(deg)": 76.74518141015903,
        "Mean Anomaly(deg)": 16.424301140249923,
        "RAAN(deg)": 164.99994341083445,
        "Satellite Name": "Constellation 1 727",
        "Satellite Number": 727,
        "Semi-Major Axis(m)": 7083131.272910544,
        "Time(s)": 1
    },
    {
        "Altitude(m)": 702670.4627233908,
        "Argument of Periapsis(deg)": 0.00011989601249081122,
        "Eccentricity": 0.0,
        "Inclination(deg)": 45.0,
        "Latitude(deg)": 11.583789707331949,
        "Longitude(deg)": 76.78572589624778,
        "Mean Anomaly(deg)": 16.485002280499785,
        "RAAN(deg)": 164.99988682166884,
        "Satellite Name": "Constellation 1 727",
        "Satellite Number": 727,
        "Semi-Major Axis(m)": 7083131.272910544,
        "Time(s)": 2
    },
    {
        "Altitude(m)": 702670.3707886786,
        "Argument of Periapsis(deg)": 0.00017984401873621686,
        "Eccentricity": 0.0,
        "Inclination(deg)": 45.0,
        "Latitude(deg)": 11.626091046786948,
        "Longitude(deg)": 76.8262838444654,
        "Mean Anomaly(deg)": 16.545703420749696,
        "RAAN(deg)": 164.99983023250329,
        "Satellite Name": "Constellation 1 727",
        "Satellite Number": 727,
        "Semi-Major Axis(m)": 7083131.272910544,
        "Time(s)": 3
    },
    {
        "Altitude(m)": 702670.2978758581,
        "Argument of Periapsis(deg)": 0.00023979202498162244,
        "Eccentricity": 0.0,
        "Inclination(deg)": 45.0,
        "Latitude(deg)": 11.668385382506841,
        "Longitude(deg)": 76.86685530696552,
        "Mean Anomaly(deg)": 16.606404560999582,
        "RAAN(deg)": 164.9997736433377,
        "Satellite Name": "Constellation 1 727",
        "Satellite Number": 727,
        "Semi-Major Axis(m)": 7083131.272910544,
        "Time(s)": 4
    },
    {
        "Altitude(m)": 702670.2439670189,
        "Argument of Periapsis(deg)": 0.00029974003122702807,
        "Eccentricity": 0.0,
        "Inclination(deg)": 45.0,
        "Latitude(deg)": 11.71067268603815,
        "Longitude(deg)": 76.9074403359283,
        "Mean Anomaly(deg)": 16.667105701249493,
        "RAAN(deg)": 164.99971705417215,
        "Satellite Name": "Constellation 1 727",
        "Satellite Number": 727,
        "Semi-Major Axis(m)": 7083131.272910544,
        "Time(s)": 5
    },
    {
        "Altitude(m)": 702670.2090441766,
        "Argument of Periapsis(deg)": 0.00035968803747243373,
        "Eccentricity": 0.0,
        "Inclination(deg)": 45.0,
        "Latitude(deg)": 11.752952928901067,
        "Longitude(deg)": 76.9480389835604,
        "Mean Anomaly(deg)": 16.727806841499383,
        "RAAN(deg)": 164.99966046500657,
        "Satellite Name": "Constellation 1 727",
        "Satellite Number": 727,
        "Semi-Major Axis(m)": 7083131.272910544,
        "Time(s)": 6
    },
    {
        "Altitude(m)": 702670.1930892655,
        "Argument of Periapsis(deg)": 0.00041963604371783933,
        "Eccentricity": 0.0,
        "Inclination(deg)": 45.0,
        "Latitude(deg)": 11.795226082589329,
        "Longitude(deg)": 76.98865113399786,
        "Mean Anomaly(deg)": 16.78850798174929,
        "RAAN(deg)": 164.999603875841,
        "Satellite Name": "Constellation 1 727",
        "Satellite Number": 727,
        "Semi-Major Axis(m)": 7083131.272910544,
        "Time(s)": 7
    },
    {
        "Altitude(m)": 702670.1960841338,
        "Argument of Periapsis(deg)": 0.0004795840499632449,
        "Eccentricity": 0.0,
        "Inclination(deg)": 45.0,
        "Latitude(deg)": 11.837492118570546,
        "Longitude(deg)": 77.02927717569477,
        "Mean Anomaly(deg)": 16.84920912199918,
        "RAAN(deg)": 164.99954728667544,
        "Satellite Name": "Constellation 1 727",
        "Satellite Number": 727,
        "Semi-Major Axis(m)": 7083131.272910544,
        "Time(s)": 8
    },
    {
        "Altitude(m)": 702670.2180105571,
        "Argument of Periapsis(deg)": 0.0005395320562086505,
        "Eccentricity": 0.0,
        "Inclination(deg)": 45.0,
        "Latitude(deg)": 11.87975100828539,
        "Longitude(deg)": 77.0699169928406,
        "Mean Anomaly(deg)": 16.90991026224909,
        "RAAN(deg)": 164.99949069750988,
        "Satellite Name": "Constellation 1 727",
        "Satellite Number": 727,
        "Semi-Major Axis(m)": 7083131.272910544,
        "Time(s)": 9
    },
    {
        "Altitude(m)": 702670.2588502334,
        "Argument of Periapsis(deg)": 0.0005994800624540561,
        "Eccentricity": 0.0,
        "Inclination(deg)": 45.0,
        "Latitude(deg)": 11.922002723147992,
        "Longitude(deg)": 77.11057063774865,
        "Mean Anomaly(deg)": 16.970611402499003,
        "RAAN(deg)": 164.9994341083443,
        "Satellite Name": "Constellation 1 727",
        "Satellite Number": 727,
        "Semi-Major Axis(m)": 7083131.272910544,
        "Time(s)": 10
    },
    {
        "Altitude(m)": 702670.3185847678,
        "Argument of Periapsis(deg)": 0.0006594280686994618,
        "Eccentricity": 0.0,
        "Inclination(deg)": 45.0,
        "Latitude(deg)": 11.96424723454562,
        "Longitude(deg)": 77.15123816275907,
        "Mean Anomaly(deg)": 17.03131254274889,
        "RAAN(deg)": 164.99937751917872,
        "Satellite Name": "Constellation 1 727",
        "Satellite Number": 727,
        "Semi-Major Axis(m)": 7083131.272910544,
        "Time(s)": 11
    },
    {
        "Altitude(m)": 702670.397195698,
        "Argument of Periapsis(deg)": 0.0007193760749448675,
        "Eccentricity": 0.0,
        "Inclination(deg)": 45.0,
        "Latitude(deg)": 12.006484513838759,
        "Longitude(deg)": 77.191919620239,
        "Mean Anomaly(deg)": 17.0920136829988,
        "RAAN(deg)": 164.99932093001314,
        "Satellite Name": "Constellation 1 727",
        "Satellite Number": 727,
        "Semi-Major Axis(m)": 7083131.272910544,
        "Time(s)": 12
    },
    {
        "Altitude(m)": 702670.4946644763,
        "Argument of Periapsis(deg)": 0.000779324081190273,
        "Eccentricity": 0.0,
        "Inclination(deg)": 45.0,
        "Latitude(deg)": 12.048714532360815,
        "Longitude(deg)": 77.23261506258241,
        "Mean Anomaly(deg)": 17.15271482324869,
        "RAAN(deg)": 164.9992643408476,
        "Satellite Name": "Constellation 1 727",
        "Satellite Number": 727,
        "Semi-Major Axis(m)": 7083131.272910544,
        "Time(s)": 13
    },
    {
        "Altitude(m)": 702670.6109724788,
        "Argument of Periapsis(deg)": 0.0008392720874356787,
        "Eccentricity": 0.0,
        "Inclination(deg)": 45.0,
        "Latitude(deg)": 12.090937261418148,
        "Longitude(deg)": 77.27332454221043,
        "Mean Anomaly(deg)": 17.213415963498598,
        "RAAN(deg)": 164.99920775168204,
        "Satellite Name": "Constellation 1 727",
        "Satellite Number": 727,
        "Semi-Major Axis(m)": 7083131.272910544,
        "Time(s)": 14
    },
    {
        "Altitude(m)": 702670.7461009988,
        "Argument of Periapsis(deg)": 0.0008992200936810842,
        "Eccentricity": 0.0,
        "Inclination(deg)": 45.0,
        "Latitude(deg)": 12.133152672289768,
        "Longitude(deg)": 77.31404794347412,
        "Mean Anomaly(deg)": 17.274117103748488,
        "RAAN(deg)": 164.99915116251643,
        "Satellite Name": "Constellation 1 727",
        "Satellite Number": 727,
        "Semi-Major Axis(m)": 7083131.272910544,
        "Time(s)": 15
    },
    {
        "Altitude(m)": 702670.9000312557,
        "Argument of Periapsis(deg)": 0.0009591680999264898,
        "Eccentricity": 0.0,
        "Inclination(deg)": 45.0,
        "Latitude(deg)": 12.175360736227674,
        "Longitude(deg)": 77.35478565504302,
        "Mean Anomaly(deg)": 17.3348182439984,
        "RAAN(deg)": 164.99909457335087,
        "Satellite Name": "Constellation 1 727",
        "Satellite Number": 727,
        "Semi-Major Axis(m)": 7083131.272910544,
        "Time(s)": 16
    },
    {
        "Altitude(m)": 702671.0727443793,
        "Argument of Periapsis(deg)": 0.0010191161061718953,
        "Eccentricity": 0.0,
        "Inclination(deg)": 45.0,
        "Latitude(deg)": 12.217561424456207,
        "Longitude(deg)": 77.39553756132264,
        "Mean Anomaly(deg)": 17.395519384248285,
        "RAAN(deg)": 164.99903798418532,
        "Satellite Name": "Constellation 1 727",
        "Satellite Number": 727,
        "Semi-Major Axis(m)": 7083131.272910544,
        "Time(s)": 17
    },
    {
        "Altitude(m)": 702671.2642214303,
        "Argument of Periapsis(deg)": 0.001079064112417301,
        "Eccentricity": 0.0,
        "Inclination(deg)": 45.0,
        "Latitude(deg)": 12.259754708172242,
        "Longitude(deg)": 77.43630371484272,
        "Mean Anomaly(deg)": 17.456220524498196,
        "RAAN(deg)": 164.99898139501974,
        "Satellite Name": "Constellation 1 727",
        "Satellite Number": 727,
        "Semi-Major Axis(m)": 7083131.272910544,
        "Time(s)": 18
    }
]